[{"OBJECT_NAME":"SENTINEL-3B","OBJECT_ID":"2018-039A","EPOCH":"2026-03-09T22:56:26.429280","MEAN_MOTION":14.26736439,"ECCENTRICITY":9.653e-5,"INCLINATION":98.6227,"RA_OF_ASC_NODE":137.8858,"ARG_OF_PERICENTER":127.5232,"MEAN_ANOMALY":232.6036,"EPHEMERIS_TYPE":0,"CLASSIFICATION_TYPE":"U","NORAD_CAT_ID":43437,"ELEMENT_SET_NO":999,"REV_AT_EPOCH":40997,"BSTAR":7.6183716e-5,"MEAN_MOTION_DOT":1.41e-6,"MEAN_MOTION_DDOT":0},{"OBJECT_NAME":"OPS 4311 (DMSP 5B F1)","OBJECT_ID":"1971-087A","EPOCH":"2026-03-09T21:16:24.937536","MEAN_MOTION":14.28470441,"ECCENTRICITY":0.0050311,"INCLINATION":99.0136,"RA_OF_ASC_NODE":168.0124,"ARG_OF_PERICENTER":195.4169,"MEAN_ANOMALY":164.5481,"EPHEMERIS_TYPE":0,"CLASSIFICATION_TYPE":"U","NORAD_CAT_ID":5557,"ELEMENT_SET_NO":999,"REV_AT_EPOCH":82626,"BSTAR":0.00014638155,"MEAN_MOTION_DOT":3.24e-6,"MEAN_MOTION_DDOT":0}]
